INTERCOSMOS 24          
1 20261U 89080A   25175.67816619  .00000926  00000+0  26729-3 0  9995
2 20261  82.6055 272.1758 1190799 171.2609 191.1428 12.59050064633913
SL-14 R/B               
1 20262U 89080C   25175.74655988  .00000187  00000+0  47814-4 0  9992
2 20262  82.5940 338.8212 1231476  54.3554 316.6027 12.50312365627489
DELTA 1 R/B             
1 20323U 89089B   25175.55756989  .00000235  00000+0  67474-4 0  9999
2 20323  97.1037  58.6938 0068218 216.9372 142.7119 14.50403272858311
ARIANE 40 R/B           
1 20443U 90005H   25175.77215954  .00000180  00000+0  71161-4 0  9995
2 20443  98.3456 238.5553 0008894 258.7964 101.2225 14.39644734855951
DELTA 2 R/B(1)          
1 20453U 90008B   25175.68545190  .00022080  00000+0  49661-3 0  9999
2 20453  35.6097  33.8887 0137526  69.0352 292.5032 15.32988805886275
COSMOS 2058             
1 20465U 90010A   25175.60904381  .00002388  00000+0  14945-3 0  9994
2 20465  82.4762 301.0479 0010302 143.6989 216.4941 15.08923626924406
SL-14 R/B               
1 20466U 90010B   25175.33880342  .00000333  00000+0  37661-4 0  9994
2 20466  82.5023 149.9683 0021474  72.7634 287.5929 14.83266333890184
SL-14 R/B               
1 20511U 90018B   25175.24376275  .00000285  00000+0  33077-4 0  9991
2 20511  82.5217 104.6206 0015370 218.4824 141.5295 14.81852214884306
HST                     
1 20580U 90037B   25175.56984530  .00004188  00000+0  15300-3 0  9996
2 20580  28.4690 354.8719 0002272 165.9529 194.1129 15.25388542733815
SL-16 R/B               
1 20625U 90046B   25175.24361554  .00000289  00000+0  17378-3 0  9991
2 20625  70.9987 120.6734 0015075 330.0053  30.0204 14.14966109811833
COSMOS 2084             
1 20663U 90055A   25175.59361045  .00001533  00000+0  12200-3 0  9998
2 20663  62.7884 134.4901 0059870 155.2771 205.1219 15.03716971897490
SL-6 R/B(2)             
1 20666U 90055D   25175.72329224  .00001128  00000+0  10008-3 0  9993
2 20666  62.7835  49.9731 0025300 193.3191 166.7243 15.02058046898895
SL-8 R/B                
1 20775U 90078B   25175.26341000  .00008510  00000+0  27983-3 0  9996
2 20775  82.9079 121.7170 0402090 156.1186 205.9279 14.78509198770987
SL-8 R/B                
1 21088U 91006B   25175.54226160  .00000142  00000+0  12713-3 0  9994
2 21088  82.9424   2.0829 0023380  41.0737  12.9269 13.77459870728534
OKEAN-3                 
1 21397U 91039A   25175.55760135  .00002078  00000+0  15284-3 0  9995
2 21397  82.5169 226.5147 0016098 126.2129 234.0588 15.02810266826242
COSMOS 2151             
1 21422U 91042A   25174.69315396  .00001159  00000+0  93742-4 0  9992
2 21422  82.4973 333.1880 0011829 209.1011 150.9555 14.98868917824383
SL-14 R/B               
1 21423U 91042B   25175.24365759  .00000311  00000+0  36558-4 0  9994
2 21423  82.4935 102.5082 0017521  15.7066 344.4687 14.81551089814803
ERS-1                   
1 21574U 91050A   25175.51059447  .00000136  00000+0  58739-4 0  9994
2 21574  98.7913 182.2192 0030944 247.3173 112.4741 14.39203049778579
ARIANE 40 R/B           
1 21610U 91050F   25175.68959736  .00000211  00000+0  76169-4 0  9994
2 21610  98.2390 232.0493 0004231 124.4919 235.6671 14.42642964782061
INTERCOSMOS 25          
1 21819U 91086A   25175.75141045  .00001116  00000+0  22206-3 0  9995
2 21819  82.6055 105.8734 1489445 312.6782  35.7795 12.11086536465465
SL-8 R/B                
1 21876U 92008B   25175.22774979  .00000039  00000+0  23799-4 0  9995
2 21876  82.9271 100.0000 0035593 134.7940  18.1359 13.75934085673872
SL-8 R/B                
1 21938U 92020B   25175.53571941  .00000131  00000+0  12030-3 0  9994
2 21938  82.9306 345.4843 0027829 299.7831 118.4062 13.75511190665946
USA 81                  
1 21949U 92023A   25175.73251574  .00000127  00000+0  39897-4 0  9994
2 21949  85.0078 280.2250 0002603 105.4215 254.7265 14.32247630 57862
COSMOS 2219             
1 22219U 92076A   25175.10874608  .00000242  00000+0  15200-3 0  9992
2 22219  71.0578 198.5948 0019827 237.9566 121.9631 14.14025251681828
SL-16 R/B               
1 22220U 92076B   25175.57894578  .00000103  00000+0  75037-4 0  9994
2 22220  71.0007  12.0578 0011217 135.4953 285.7353 14.16809195685602
COSMOS 2221             
1 22236U 92080A   25175.43751059  .00001275  00000+0  11434-3 0  9998
2 22236  82.5042 166.1317 0014168 346.8284  13.2564 14.94908066742199
SL-16 R/B               
1 22285U 92093B   25175.71796956  .00000139  00000+0  95735-4 0  9997
2 22285  71.0194 185.7952 0005319 318.1398  41.9318 14.15395660676972
COSMOS 2228             
1 22286U 92094A   25175.27904156  .00001515  00000+0  13314-3 0  9994
2 22286  82.5186 124.4313 0020364  91.6151 268.7404 14.95747218737419
SL-16 R/B               
1 22566U 93016B   25175.73283553  .00000152  00000+0  10283-3 0  9990
2 22566  71.0076  36.9491 0010554 344.8303  15.2501 14.15257120665689
COSMOS 2242             
1 22626U 93024A   25175.35884210  .00001400  00000+0  12465-3 0  9992
2 22626  82.5191 153.4909 0018567  93.8364 266.4981 14.95196536741778
SL-16 R/B               
1 22803U 93059B   25175.35632241 -.00000014  00000+0  17075-4 0  9996
2 22803  70.9887 195.8770 0019297 247.0349 112.8738 14.17178442642933
ARIANE 40 R/B           
1 22830U 93061H   25175.79640243  .00000132  00000+0  64395-4 0  9995
2 22830  98.5266 244.2434 0010018 333.3051  26.7616 14.32668487657425
COSMOS 2278             
1 23087U 94023A   25175.51945801  .00000094  00000+0  73564-4 0  9992
2 23087  71.0547 355.2053 0007121  54.4591 305.7195 14.14307708608557
SL-16 R/B               
1 23088U 94023B   25175.54416814  .00000235  00000+0  14598-3 0  9991
2 23088  70.9992 252.9948 0004624 306.3099  53.7596 14.14965690609571
SL-16 R/B               
1 23343U 94074B   25175.54688503  .00000316  00000+0  49368-4 0  9991
2 23343  97.7384 211.4302 0006320 355.1076 174.6934 14.79052050649080
SL-16 R/B               
1 23405U 94077B   25175.69705939 -.00000133  00000+0 -43658-4 0  9997
2 23405  70.9807 175.2362 0003952 229.2846 130.7934 14.15518194579990
ARIANE 40+ R/B          
1 23561U 95021B   25175.69427745  .00000204  00000+0  79502-4 0  9990
2 23561  98.4832 245.1662 0006676 184.3208 269.0168 14.39538956582347
SL-16 R/B               
1 23705U 95058B   25175.54989562  .00000270  00000+0  16232-3 0  9997
2 23705  71.0219   2.1967 0011826 162.1780 197.9760 14.15452208531322
SL-16 R/B               
1 24298U 96051B   25175.52421251 -.00000157  00000+0 -58565-4 0  9995
2 24298  70.7677   1.6216 0015027 164.4899 195.6684 14.12413430485192
ORBVIEW 2 (SEASTAR)     
1 24883U 97037A   25175.70682732  .00000166  00000+0  74282-4 0  9995
2 24883  98.8270 328.6862 0003371  98.4051 261.7516 14.35259383471729
SL-16 R/B               
1 25400U 98043G   25175.73350071  .00000019  00000+0  26822-4 0  9994
2 25400  98.7882 122.8647 0010670  47.1725 313.0349 14.25974502402452
SL-16 R/B               
1 25407U 98045B   25175.54599905  .00000103  00000+0  76002-4 0  9992
2 25407  71.0118   4.4233 0005732  47.6244 312.5363 14.16145166390558
ISS (ZARYA)             
1 25544U 98067A   25175.76713781  .00009265  00000+0  16877-3 0  9993
2 25544  51.6388 269.5022 0001927 277.8753 226.8979 15.50227804516332
CZ-4B R/B               
1 25732U 99025C   25175.37113887  .00000060  00000+0  50041-4 0  9991
2 25732  98.6990 220.2211 0037273   9.3336   0.9741 14.18194021351559
OKEAN-O                 
1 25860U 99039A   25175.39732707  .00000468  00000+0  69069-4 0  9990
2 25860  97.9829 232.3503 0002002  92.3393 267.8047 14.79816076396188
SL-16 R/B               
1 25861U 99039B   25175.56062988  .00000373  00000+0  54651-4 0  9993
2 25861  98.0354 229.4567 0015297  19.8356 340.3448 14.81293836398645
DELTA 2 R/B             
1 25876U 99041E   25175.52494348  .00000603  00000+0  13608-3 0  9999
2 25876  51.7645 251.5229 0506397 307.0939  48.4710 14.10753730326573
HELIOS 1B               
1 25977U 99064A   25175.66323902  .00000869  00000+0  10479-3 0  9995
2 25977  98.1944  65.2443 0001669 127.9747 232.1618 14.86508019378216
TERRA                   
1 25994U 99068A   25175.77778973  .00000314  00000+0  73593-4 0  9994
2 25994  97.9976 233.4827 0000844 285.3434 184.0879 14.60717564357544
SL-16 R/B               
1 26070U 00006B   25175.56525944 -.00000172  00000+0 -62864-4 0  9992
2 26070  71.0026 280.5587 0017966 220.3204 139.6588 14.15775982312027
TITAN 4B R/B            
1 26474U 00047B   25175.60717403  .00001857  00000+0  12894-3 0  9999
2 26474  67.9894  44.8207 0045795 325.3155  34.5008 15.07256178354078
ENVISAT                 
1 27386U 02009A   25175.84347369  .00000051  00000+0  30230-4 0  9998
2 27386  98.3342 131.1970 0001368  88.6907 304.0904 14.38922943222163
IDEFIX & ARIANE 42P R/B 
1 27422U 02021B   25175.53954372  .00000147  00000+0  72586-4 0  9993
2 27422  98.5613 112.6880 0010889 224.0540 135.9776 14.30799447207106
AQUA                    
1 27424U 02022A   25175.86902567  .00000585  00000+0  12835-3 0  9997
2 27424  98.3782 134.3164 0001791  61.5218 322.6252 14.61317744231119
CZ-4B R/B               
1 27432U 02024C   25175.75777802  .00000034  00000+0  40308-4 0  9994
2 27432  98.9227 224.8639 0050763  36.2035  71.9752 14.14488254192858
MIDORI II (ADEOS-II)    
1 27597U 02056A   25175.74410904  .00000196  00000+0  95239-4 0  9999
2 27597  98.7384 128.0873 0001991  60.3272 299.8107 14.29056760173434
H-2A R/B                
1 27601U 02056E   25175.55237334  .00000141  00000+0  64424-4 0  9990
2 27601  98.2795 141.4092 0069732 210.1844 263.7657 14.33515847177121
CZ-4B R/B               
1 28059U 03049C   25175.54271851  .00000239  00000+0  67030-4 0  9996
2 28059  98.6593 155.8202 0047406 300.3725  59.2789 14.54694373149066
CZ-2C R/B               
1 28222U 04012C   25175.55925809  .00012771  00000+0  27274-3 0  9998
2 28222  97.7656 215.4842 0023896 166.3369 193.8531 15.44700270164243
